TDRS 12                 
1 39504U 14004A   16322.88830763 -.00000288  00000-0  00000+0 0  9995
2 39504   6.1993 336.3662 0004979 280.2455  79.6012  1.00276384 10372
ABS-2                   
1 39508U 14006A   16322.63311307 -.00000099  00000-0  00000-0 0  9993
2 39508   0.0251  20.0294 0003311 239.3162 100.6402  1.00271857 10269
ATHENA-FIDUS            
1 39509U 14006B   16322.73600926  .00000141  00000-0  00000+0 0  9999
2 39509   0.0101 339.4176 0001523 281.9584  98.6296  1.00274313 10429
TURKSAT 4A              
1 39522U 14007A   16322.72423081  .00000133  00000-0  00000+0 0  9990
2 39522   0.0378 277.3144 0005126 334.4127 108.2400  1.00274220 10135
EXPRESS-AT1             
1 39612U 14010A   16323.02076257  .00000065  00000-0  00000+0 0  9991
2 39612   0.0236 295.4964 0000766   9.3148 176.1723  1.00271961  9976
EXPRESS-AT2             
1 39613U 14010B   16323.63874840 -.00000295  00000-0  00000+0 0  9999
2 39613   0.0142 293.0403 0000550 320.2895 174.5777  1.00270507  9819
AMAZONAS 4A             
1 39616U 14011A   16323.00963560 -.00000295  00000-0  00000+0 0  9992
2 39616   0.0533  66.8358 0001508 181.5939 111.5763  1.00269099  9799
ASTRA 5B                
1 39617U 14011B   16323.05608605  .00000142  00000-0  00000+0 0  9994
2 39617   0.0354 346.2395 0003141 252.9669 230.0561  1.00269977  9793
IRNSS-1B                
1 39635U 14017A   16321.00170560  .00000047  00000-0  00000+0 0  9991
2 39635  29.4813 298.2406 0020236 190.4831 342.4699  1.00275491  9707
LUCH 5V                 
1 39727U 14023A   16322.94982091 -.00000284  00000-0  00000-0 0  9999
2 39727   3.1173 299.5663 0003919 327.7394 226.7782  1.00274049527445
KAZSAT 3                
1 39728U 14023B   16320.99947084  .00000051  00000-0  00000+0 0  9996
2 39728   0.0294 298.3789 0001505 358.2424 177.2035  1.00271271  9343
EUTELSAT 3B             
1 39773U 14030A   16323.03050435  .00000007  00000-0  00000+0 0  9998
2 39773   0.0626 346.1514 0003032 264.0490 181.3903  1.00272129  9145
ASIASAT 8               
1 40107U 14046A   16322.54895184 -.00000345  00000-0  00000+0 0  9997
2 40107   0.0092 322.0896 0001607 285.8489 112.0679  1.00271418  8427
ASIASAT 6               
1 40141U 14052A   16322.94187734 -.00000375  00000-0  00000-0 0  9995
2 40141   0.0634 109.2162 0000655 144.0933 263.1079  1.00271917  7997
OPTUS 10                
1 40146U 14054A   16323.38370375 -.00000088  00000-0  00000+0 0  9996
2 40146   0.0499  59.1840 0001478 181.5410 119.2814  1.00271835  8052
MEASAT-3B               
1 40147U 14054B   16322.58725142 -.00000255  00000-0  00000-0 0  9991
2 40147   0.0403  42.5723 0001048 232.5065  84.9325  1.00271947  7834
LUCH (OLYMP)            
1 40258U 14058A   16322.13783095  .00000056  00000-0  00000-0 0  9998
2 40258   0.0223 348.0890 0001058 217.1365 270.9280  1.00272557  7856
HIMAWARI-8              
1 40267U 14060A   16322.45107912 -.00000288  00000-0  00000-0 0  9992
2 40267   0.0079 320.7570 0000897 260.3415 138.9184  1.00271428  7686
IRNSS-1C                
1 40269U 14061A   16322.32478401 -.00000174  00000-0  00000-0 0  9999
2 40269   3.4336 256.5079 0022057   3.4448 356.7897  1.00274606  7609
INTELSAT 30 (IS-30)     
1 40271U 14062A   16323.42931707 -.00000164  00000-0  00000+0 0  9996
2 40271   0.0146 311.9599 0001309 133.8892  31.5496  1.00270730  7691
ARSAT 1                 
1 40272U 14062B   16323.20933373 -.00000273  00000-0  00000+0 0  9995
2 40272   0.0384 112.1620 0002238 142.0248 167.0672  1.00271194  7811
EXPRESS-AM6             
1 40277U 14064A   16322.13269013  .00000086  00000-0  00000-0 0  9998
2 40277   0.0157 331.1862 0000898 320.3977 225.8205  1.00272301  6517
GSAT-16                 
1 40332U 14078A   16322.68841360  .00000073  00000-0  00000+0 0  9991
2 40332   0.0574 274.3321 0003406 224.1970 221.5200  1.00270611  7186
DIRECTV 14              
1 40333U 14078B   16322.55859617 -.00000138  00000-0  00000+0 0  9995
2 40333   0.0077 149.8805 0001317 175.5319 193.5010  1.00271445  7164
YAMAL 401               
1 40345U 14082A   16322.86785253 -.00000242  00000-0  00000-0 0  9998
2 40345   0.0695  90.9309 0001869 191.3199 177.5086  1.00271021  7336
ASTRA 2G                
1 40364U 14089A   16322.76263183  .00000137  00000-0  00000-0 0  9990
2 40364   0.0364  14.9663 0000367  28.6248 316.4347  1.00272349  6885
FENGYUN 2G              
1 40367U 14090A   16322.86153003 -.00000342  00000-0  00000+0 0  9993
2 40367   0.8716 268.0771 0002048 303.3959 260.3007  1.00281631  6962
INMARSAT 5-F2           
1 40384U 15005A   16321.97480023 -.00000296  00000-0  00000-0 0  9994
2 40384   0.0180 295.4311 0000589 335.6409  81.3495  1.00270834  6581
ABS-3A                  
1 40424U 15010A   16321.85175571 -.00000037  00000-0  00000+0 0  9993
2 40424   0.0117 313.1285 0001932 186.6159 220.2953  1.00271510  6320
EUTELSAT 115 WEST B     
1 40425U 15010B   16322.16179636 -.00000037  00000-0  00000-0 0  9996
2 40425   0.0124 119.4737 0000210  23.1943 217.3580  1.00273251  6330
EXPRESS-AM7             
1 40505U 15012A   16322.89961049  .00000138  00000-0  00000-0 0  9995
2 40505   0.0133 285.5993 0002736 313.1337 182.5150  1.00272307  6283
IRNSS-1D                
1 40547U 15018A   16322.36027916 -.00000332  00000-0  00000+0 0  9991
2 40547  29.4717 298.3603 0020280 185.0057 174.9291  1.00269014  6160
BEIDOU I1-S             
1 40549U 15019A   16323.48063137 -.00000183  00000-0  00000+0 0  9997
2 40549  54.5866 336.1777 0041122 184.0037 166.4807  1.00285138  6001
THOR 7                  
1 40613U 15022A   16322.84251116 -.00000021  00000-0  00000-0 0  9990
2 40613   0.0355 122.0196 0002809 115.2240 122.7518  1.00272858  5749
TURKMENALEM52E/MONACOSAT
1 40617U 15023A   16322.69666898  .00000091  00000-0  00000-0 0  9991
2 40617   0.0207  13.5515 0002362 238.9434 107.5022  1.00271869  5753
DIRECTV 15              
1 40663U 15026A   16322.31531253  .00000000  00000-0  10000-3 0  9994
2 40663   0.0455  89.3656 0001003 258.4444  79.7651  1.00267463  5455
SKY MEXICO-1            
1 40664U 15026B   16323.05900554 -.00000247  00000-0  00000+0 0  9990
2 40664   0.0320  81.2480 0002419 160.4302 118.2974  1.00271861  5465
METEOSAT-11 (MSG-4)     
1 40732U 15034A   16321.55246767 -.00000035  00000-0  00000-0 0  9993
2 40732   2.2149 251.2873 0002259  12.1209 348.2656  1.00277794  4956
STAR ONE C4             
1 40733U 15034B   16322.03733131 -.00000276  00000-0  00000-0 0  9991
2 40733   0.0567  71.7566 0002957 207.2614  80.9733  1.00270708  4957
INTELSAT 34 (IS-34)     
1 40874U 15039A   16322.99450456 -.00000298  00000-0  00000+0 0  9996
2 40874   0.0169 298.8896 0000745 283.6714 137.4555  1.00275205  4600
EUTELSAT 8 WEST B       
1 40875U 15039B   16321.86548862 -.00000076  00000-0  00000+0 0  9995
2 40875   0.0686  13.6921 0003554 245.5198 100.7733  1.00272259  4608
GSAT-6                  
1 40880U 15041A   16322.61053057 -.00000177  00000-0  00000+0 0  9997
2 40880   0.2694 266.7983 0010509 357.5562  95.5493  1.00272743  4557
INMARSAT 5-F3           
1 40882U 15042A   16323.34050271  .00000037  00000-0  00000+0 0  9990
2 40882   0.0177 294.8480 0000366  87.4297 337.7454  1.00269003  4486
TJS-1                   
1 40892U 15046A   16322.79840972 -.00000169  00000-0  00000-0 0  9996
2 40892   0.0365 295.1753 0001783 310.2386 254.2591  1.00274350  4478
EXPRESS-AM8             
1 40895U 15048A   16322.26986003 -.00000123  00000-0  00000+0 0  9998
2 40895   0.0001 234.9887 0000722  20.7822 244.1514  1.00271692  4296
BEIDOU I2-S             
1 40938U 15053A   16322.53125300 -.00000149  00000-0  00000-0 0  9996
2 40938  54.4964 299.0649 0044673 175.7055 226.4325  1.00255283  4285
SKY MUSTER (NBN1A)      
1 40940U 15054A   16322.45225835 -.00000290  00000-0  00000+0 0  9991
2 40940   0.0144 294.2381 0002054 305.8163 119.9489  1.00271553  4205
ARSAT 2                 
1 40941U 15054B   16323.06510133 -.00000238  00000-0  00000+0 0  9990
2 40941   0.0408  98.9910 0002685 157.4127 103.5883  1.00271673  4241
MORELOS 3               
1 40946U 15056A   16323.07160604 -.00000064  00000-0  00000+0 0  9999
2 40946   6.6856 330.3412 0000553 351.3858   8.5332  1.00271378  4215
APSTAR 9                
1 40982U 15059A   16322.87233631 -.00000278  00000-0  00000+0 0  9997
2 40982   0.0054 196.0977 0002436  41.9628 275.3757  1.00271205  4073
TURKSAT 4B              
1 40984U 15060A   16322.70217694  .00000101  00000-0  00000-0 0  9999
2 40984   0.0161 341.9108 0002127 242.0547 136.0405  1.00276603  4049
CHINASAT 2C (ZX 2C)     
1 41021U 15063A   16323.00720214 -.00000337  00000-0  00000+0 0  9997
2 41021   0.0420  58.4376 0002361 255.3211 209.7601  1.00270113  3935
GSAT-15                 
1 41028U 15065A   16322.58164227 -.00000270  00000-0  00000-0 0  9991
2 41028   0.0482 278.4558 0003357 311.2489 130.2893  1.00268939  3788
BADR-7 (ARABSAT-6B)     
1 41029U 15065B   16321.77137470  .00000134  00000-0  00000-0 0  9990
2 41029   0.0569 260.9484 0005395 337.8555 121.1687  1.00269077  3662
LAOSAT 1                
1 41034U 15067A   16322.48474572 -.00000355  00000-0  00000-0 0  9990
2 41034   0.0444 111.3171 0001630 140.5875 108.1012  1.00269750  3760
TELSTAR 12V             
1 41036U 15068A   16322.88229477 -.00000132  00000-0  00000+0 0  9991
2 41036   0.0163 286.4105 0002890 315.7372 117.8230  1.00270535  3658
CHINASAT 1C (ZX 1C)     
1 41103U 15073A   16322.92948119 -.00000164  00000-0  00000-0 0  9994
2 41103   0.0285 251.4452 0004152   9.3629 212.7379  1.00272644  3594
ELEKTRO-L 2             
1 41105U 15074A   16322.94433475 -.00000110  00000-0  00000-0 0  9994
2 41105   0.0729  73.0158 0001267 178.0013 222.4177  1.00271622  3448
COSMOS 2513             
1 41121U 15075A   16322.94314265 -.00000151  00000-0  00000-0 0  9993
2 41121   0.0762  79.0100 0003351 177.6296 220.5819  1.00270967  3522
